0 THORAD AGENA D DEB
1 04987U 70025HH  13282.82787363  .00000010  00000-0  84251-4 0  5229
2 04987 099.6235 007.8607 0039899 150.2770 325.7717 13.48370960138849
0 THORAD AGENA D DEB
1 04987U 70025HH  13284.08996825  .00000036  00000-0  12617-3 0  5239
2 04987 099.6235 009.0761 0039905 147.2298 332.0668 13.48371036139014
0 THORAD AGENA D DEB
1 04987U 70025HH  13286.83616503  .00000036  00000-0  12614-3 0  5255
2 04987 099.6236 011.7212 0039923 140.5309 342.3652 13.48371147139385
0 THORAD AGENA D DEB
1 04987U 70025HH  13288.22619124  .00000065  00000-0  17171-3 0  5268
2 04987 099.6235 013.0601 0039936 137.1519 249.6733 13.48371354139570
0 THORAD AGENA D DEB
1 04987U 70025HH  13289.72968163  .00000056  00000-0  15818-3 0  5271
2 04987 099.6232 014.5082 0039953 133.4852 347.7585 13.48371653139773
0 THORAD AGENA D DEB
1 04987U 70025HH  13290.76843010  .00000056  00000-0  15809-3 0  5281
2 04987 099.6229 015.5086 0039971 130.9420 349.9539 13.48371932139916
0 THORAD AGENA D DEB
1 04987U 70025HH  13292.16518817  .00000059  00000-0  16259-3 0  5295
2 04987 099.6227 016.8539 0039967 127.5492 289.9403 13.48372262140100
0 THORAD AGENA D DEB
1 04987U 70025HH  13293.19820250  .00000060  00000-0  16412-3 0  5301
2 04987 099.6226 017.8488 0039959 125.0334 264.2899 13.48372549140240
0 THORAD AGENA D DEB
1 04987U 70025HH  13294.46618177  .00000058  00000-0  16114-3 0  5312
2 04987 099.6225 019.0699 0039946 121.9572 299.1715 13.48373011140410
0 THORAD AGENA D DEB
1 04987U 70025HH  13295.81427949  .00000058  00000-0  16076-3 0  5325
2 04987 099.6226 020.3681 0039957 118.6771 002.9657 13.48373383140599
